{
  "type": "FeatureCollection",
  "features": [
    {
      "type": "Feature",
      "properties": {
        "norad_id": 41773,
        "name": "SKYSAT-C2",
        "group": "resource",
        "lat": -18.323277329708333,
        "lon": 26.765620790834813,
        "alt_km": 456.6474836010966,
        "timestamp": "2025-12-26T11:25:44.876771+00:00",
        "meta_object_name": "SKYSAT-C2",
        "meta_object_id": "2016-058D",
        "meta_epoch": "2025-12-26T00:34:32.743776",
        "meta_mean_motion": 15.37567448,
        "meta_eccentricity": 0.0002652,
        "meta_inclination": 97.0353,
        "meta_ra_of_asc_node": 23.9884,
        "meta_arg_of_pericenter": 353.6257,
        "meta_mean_anomaly": 6.4955,
        "meta_ephemeris_type": 0,
        "meta_classification_type": "U",
        "meta_norad_cat_id": 41773,
        "meta_element_set_no": 999,
        "meta_rev_at_epoch": 51840,
        "meta_bstar": 0.000326,
        "meta_mean_motion_dot": 0.00011946,
        "meta_mean_motion_ddot": 0,
        "tle_line1": "1 41773U 16058D   25360.02399009  .00011946  00000+0  32600-3 0  9994",
        "tle_line2": "2 41773  97.0353  23.9884 0002652 353.6257   6.4955 15.37567448518408"
      },
      "geometry": {
        "type": "Point",
        "coordinates": [
          26.765620790834813,
          -18.323277329708333
        ]
      }
    },
    {
      "type": "Feature",
      "properties": {
        "norad_id": 41774,
        "name": "SKYSAT-C3",
        "group": "resource",
        "lat": 13.389733260817932,
        "lon": -144.756493946958,
        "alt_km": 432.26809755842805,
        "timestamp": "2025-12-26T11:25:44.876780+00:00",
        "meta_object_name": "SKYSAT-C3",
        "meta_object_id": "2016-058E",
        "meta_epoch": "2025-12-26T01:23:02.725152",
        "meta_mean_motion": 15.44872099,
        "meta_eccentricity": 0.0002136,
        "meta_inclination": 96.9285,
        "meta_ra_of_asc_node": 33.1854,
        "meta_arg_of_pericenter": 105.3286,
        "meta_mean_anomaly": 254.82,
        "meta_ephemeris_type": 0,
        "meta_classification_type": "U",
        "meta_norad_cat_id": 41774,
        "meta_element_set_no": 999,
        "meta_rev_at_epoch": 51931,
        "meta_bstar": 0.0004046,
        "meta_mean_motion_dot": 0.00018932,
        "meta_mean_motion_ddot": 0,
        "tle_line1": "1 41774U 16058E   25360.05767043  .00018932  00000+0  40460-3 0  9990",
        "tle_line2": "2 41774  96.9285  33.1854 0002136 105.3286 254.8200 15.44872099519314"
      },
      "geometry": {
        "type": "Point",
        "coordinates": [
          -144.756493946958,
          13.389733260817932
        ]
      }
    },
    {
      "type": "Feature",
      "properties": {
        "norad_id": 41785,
        "name": "ALSAT 1B",
        "group": "resource",
        "lat": 42.58839033140409,
        "lon": 4.4521339351512035,
        "alt_km": 643.9211464915343,
        "timestamp": "2025-12-26T11:25:44.876789+00:00",
        "meta_object_name": "ALSAT 1B",
        "meta_object_id": "2016-059C",
        "meta_epoch": "2025-12-26T04:42:32.714208",
        "meta_mean_motion": 14.72088239,
        "meta_eccentricity": 0.001072,
        "meta_inclination": 97.781,
        "meta_ra_of_asc_node": 11.4045,
        "meta_arg_of_pericenter": 65.7505,
        "meta_mean_anomaly": 294.4822,
        "meta_ephemeris_type": 0,
        "meta_classification_type": "U",
        "meta_norad_cat_id": 41785,
        "meta_element_set_no": 999,
        "meta_rev_at_epoch": 49512,
        "meta_bstar": 4.9791e-05,
        "meta_mean_motion_dot": 2.66e-06,
        "meta_mean_motion_ddot": 0,
        "tle_line1": "1 41785U 16059C   25360.19621197  .00000266  00000+0  49791-4 0  9995",
        "tle_line2": "2 41785  97.7810  11.4045 0010720  65.7505 294.4822 14.72088239495128"
      },
      "geometry": {
        "type": "Point",
        "coordinates": [
          4.4521339351512035,
          42.58839033140409
        ]
      }
    },
    {
      "type": "Feature",
      "properties": {
        "norad_id": 41787,
        "name": "PATHFINDER 1",
        "group": "resource",
        "lat": -65.95165838629467,
        "lon": 164.68992640145774,
        "alt_km": 695.1847235113619,
        "timestamp": "2025-12-26T11:25:44.876798+00:00",
        "meta_object_name": "PATHFINDER 1",
        "meta_object_id": "2016-059E",
        "meta_epoch": "2025-12-26T00:29:12.768288",
        "meta_mean_motion": 14.67343776,
        "meta_eccentricity": 0.0029554,
        "meta_inclination": 97.8139,
        "meta_ra_of_asc_node": 2.1776,
        "meta_arg_of_pericenter": 40.6195,
        "meta_mean_anomaly": 319.7207,
        "meta_ephemeris_type": 0,
        "meta_classification_type": "U",
        "meta_norad_cat_id": 41787,
        "meta_element_set_no": 999,
        "meta_rev_at_epoch": 49431,
        "meta_bstar": 0.000151,
        "meta_mean_motion_dot": 8.11e-06,
        "meta_mean_motion_ddot": 0,
        "tle_line1": "1 41787U 16059E   25360.02028667  .00000811  00000+0  15100-3 0  9994",
        "tle_line2": "2 41787  97.8139   2.1776 0029554  40.6195 319.7207 14.67343776494317"
      },
      "geometry": {
        "type": "Point",
        "coordinates": [
          164.68992640145774,
          -65.95165838629467
        ]
      }
    },
    {
      "type": "Feature",
      "properties": {
        "norad_id": 41790,
        "name": "SCATSAT 1",
        "group": "resource",
        "lat": 80.70332408720677,
        "lon": -61.65470511901076,
        "alt_km": 586.1189619852776,
        "timestamp": "2025-12-26T11:25:44.876806+00:00",
        "meta_object_name": "SCATSAT 1",
        "meta_object_id": "2016-059H",
        "meta_epoch": "2025-12-26T02:53:17.988576",
        "meta_mean_motion": 14.78978237,
        "meta_eccentricity": 0.0056432,
        "meta_inclination": 98.1446,
        "meta_ra_of_asc_node": 56.9567,
        "meta_arg_of_pericenter": 85.8593,
        "meta_mean_anomaly": 274.9065,
        "meta_ephemeris_type": 0,
        "meta_classification_type": "U",
        "meta_norad_cat_id": 41790,
        "meta_element_set_no": 999,
        "meta_rev_at_epoch": 7600,
        "meta_bstar": 0.00019672,
        "meta_mean_motion_dot": 1.435e-05,
        "meta_mean_motion_ddot": 0,
        "tle_line1": "1 41790U 16059H   25360.12034709  .00001435  00000+0  19672-3 0  9994",
        "tle_line2": "2 41790  98.1446  56.9567 0056432  85.8593 274.9065 14.78978237 76003"
      },
      "geometry": {
        "type": "Point",
        "coordinates": [
          -61.65470511901076,
          80.70332408720677
        ]
      }
    },
    {
      "type": "Feature",
      "properties": {
        "norad_id": 41875,
        "name": "GOKTURK 1A",
        "group": "resource",
        "lat": 76.80482819433408,
        "lon": 110.29455486019226,
        "alt_km": 676.0557721401092,
        "timestamp": "2025-12-26T11:25:44.876816+00:00",
        "meta_object_name": "GOKTURK 1A",
        "meta_object_id": "2016-073A",
        "meta_epoch": "2025-12-26T04:24:18.947232",
        "meta_mean_motion": 14.62795998,
        "meta_eccentricity": 0.0001287,
        "meta_inclination": 98.1424,
        "meta_ra_of_asc_node": 252.3698,
        "meta_arg_of_pericenter": 82.118,
        "meta_mean_anomaly": 278.0167,
        "meta_ephemeris_type": 0,
        "meta_classification_type": "U",
        "meta_norad_cat_id": 41875,
        "meta_element_set_no": 999,
        "meta_rev_at_epoch": 48353,
        "meta_bstar": 0.00017188,
        "meta_mean_motion_dot": 8.3e-06,
        "meta_mean_motion_ddot": 0,
        "tle_line1": "1 41875U 16073A   25360.18355263  .00000830  00000+0  17188-3 0  9999",
        "tle_line2": "2 41875  98.1424 252.3698 0001287  82.1180 278.0167 14.62795998483532"
      },
      "geometry": {
        "type": "Point",
        "coordinates": [
          110.29455486019226,
          76.80482819433408
        ]
      }
    },
    {
      "type": "Feature",
      "properties": {
        "norad_id": 41877,
        "name": "RESOURCESAT-2A",
        "group": "resource",
        "lat": -79.31125830371343,
        "lon": 125.15544524768535,
        "alt_km": 827.0330172695931,
        "timestamp": "2025-12-26T11:25:44.876824+00:00",
        "meta_object_name": "RESOURCESAT-2A",
        "meta_object_id": "2016-074A",
        "meta_epoch": "2025-12-26T03:22:38.386848",
        "meta_mean_motion": 14.21604411,
        "meta_eccentricity": 0.0001657,
        "meta_inclination": 98.7735,
        "meta_ra_of_asc_node": 69.9175,
        "meta_arg_of_pericenter": 197.6867,
        "meta_mean_anomaly": 162.4253,
        "meta_ephemeris_type": 0,
        "meta_classification_type": "U",
        "meta_norad_cat_id": 41877,
        "meta_element_set_no": 999,
        "meta_rev_at_epoch": 46971,
        "meta_bstar": -6.0316e-05,
        "meta_mean_motion_dot": -1.77e-06,
        "meta_mean_motion_ddot": 0,
        "tle_line1": "1 41877U 16074A   25360.14072207 -.00000177  00000+0 -60316-4 0  9990",
        "tle_line2": "2 41877  98.7735  69.9175 0001657 197.6867 162.4253 14.21604411469712"
      },
      "geometry": {
        "type": "Point",
        "coordinates": [
          125.15544524768535,
          -79.31125830371343
        ]
      }
    }
  ]
}